STARLINK-3740           
1 52265U 22041E   25130.45752144  .00004257  00000+0  28551-3 0  9993
2 52265  53.2173  30.3831 0001374  89.3469 270.7681 15.08826106168581
STARLINK-3739           
1 52266U 22041F   25130.45384494  .00003202  00000+0  21925-3 0  9990
2 52266  53.2191  30.4002 0001647  85.4527 274.6653 15.08826111168586
STARLINK-3748           
1 52267U 22041G   25130.45015864  .00001082  00000+0  86040-4 0  9997
2 52267  53.2190  30.4223 0001526  85.0070 275.1097 15.08847275168588
STARLINK-3746           
1 52268U 22041H   25130.43175204  .00000108  00000+0  24876-4 0  9998
2 52268  53.2200  30.4203 0001542  85.3843 274.7326 15.08840652169806
STARLINK-3791           
1 52269U 22041J   25130.04902942  .00001433  00000+0  10806-3 0  9992
2 52269  53.2185  32.2162 0001308  85.4745 274.6397 15.08851019168529
STARLINK-3804           
1 52270U 22041K   25130.43914620  .00004284  00000+0  28714-3 0  9997
2 52270  53.2189  30.4930 0001799  93.3199 266.7999 15.08832503169790
STARLINK-3788           
1 52271U 22041L   25130.44279901  .00000736  00000+0  64351-4 0  9991
2 52271  53.2193  30.4474 0001476  81.9737 278.1423 15.08842960168585
STARLINK-3781           
1 52272U 22041M   25130.43640196  .00000784  00000+0  67323-4 0  9994
2 52272  53.2196  30.5143 0001550  83.4987 276.6182 15.08841501168585
STARLINK-3782           
1 52273U 22041N   25130.07672911 -.00000050  00000+0  14955-4 0  9995
2 52273  53.2206  22.4791 0001584  97.5718 262.5454 15.08835547168660
STARLINK-3790           
1 52274U 22041P   25130.42808087  .00003125  00000+0  21434-3 0  9994
2 52274  53.2181  30.5139 0001463  95.1431 264.9728 15.08844152168584
STARLINK-3784           
1 52275U 22041Q   25130.43544189  .00000452  00000+0  46519-4 0  9998
2 52275  53.2202  30.4817 0001544  86.3729 273.7439 15.08840489168589
STARLINK-3778           
1 52276U 22041R   25130.42440115  .00001328  00000+0  10149-3 0  9994
2 52276  53.2187  30.5306 0001297  85.2497 274.8643 15.08843933168587
STARLINK-3780           
1 52278U 22041T   25130.42072437  .00007104  00000+0  46380-3 0  9998
2 52278  53.2194  30.5490 0001409 100.4766 259.6385 15.08853024169807
STARLINK-3764           
1 52280U 22041V   25130.14471649  .00000245  00000+0  33472-4 0  9996
2 52280  53.2185  31.7825 0001472 106.9734 253.1419 15.08840868168540
STARLINK-3779           
1 52281U 22041W   25130.42535701 -.00000163  00000+0  78617-5 0  9999
2 52281  53.2202  30.5271 0001505  96.2728 263.8436 15.08840901168583
STARLINK-3783           
1 52282U 22041X   25130.40324260  .00000046  00000+0  20982-4 0  9994
2 52282  53.2204  20.6269 0001531  88.9082 271.2086 15.08838043168716
STARLINK-3789           
1 52283U 22041Y   25130.41704051 -.00000131  00000+0  98825-5 0  9994
2 52283  53.2189  30.5618 0001456  94.7015 265.4143 15.08835855168586
STARLINK-3561           
1 52284U 22041Z   25130.59461046  .00000995  00000+0  80581-4 0  9994
2 52284  53.2182  19.7630 0001322  75.5093 284.6046 15.08837503168743
STARLINK-3775           
1 52285U 22041AA  25130.01591927 -.00000144  00000+0  90695-5 0  9999
2 52285  53.2177  32.3595 0001295  97.7585 262.3554 15.08838983168526
STARLINK-3802           
1 52286U 22041AB  25130.38852880 -.00000111  00000+0  11133-4 0  9991
2 52286  53.2188  20.6930 0001528 109.3981 250.7177 15.08841798168712
STARLINK-3822           
1 52287U 22041AC  25130.00855572  .00000232  00000+0  32703-4 0  9991
2 52287  53.2181  32.3937 0001584 104.2714 255.8454 15.08839300168522
STARLINK-3776           
1 52288U 22041AD  25130.38483703 -.00000799  00000+0 -32105-4 0  9992
2 52288  53.2186  20.7087 0001409  87.2896 272.8258 15.08844509168711
STARLINK-3751           
1 52289U 22041AE  25130.39956081  .00000532  00000+0  51506-4 0  9997
2 52289  53.2203  20.6465 0001659 116.1086 244.0077 15.08838435168712
STARLINK-3772           
1 52290U 22041AF  25129.97732890 -.00000919  00000+0 -39648-4 0  9995
2 52290  53.2186  22.5367 0001725  90.9889 269.1300 15.08833336168655
STARLINK-3773           
1 52291U 22041AG  25129.95403506  .00137638  00000+0  16198-2 0  9993
2 52291  53.1943 329.1733 0004653  59.4775 300.6698 15.60475662170629
STARLINK-3753           
1 52292U 22041AH  25129.97267964 -.00000315  00000+0 -17128-5 0  9992
2 52292  53.2184  22.5553 0001452  98.9435 261.1721 15.08838014168651
STARLINK-3771           
1 52293U 22041AJ  25130.38211930 -.00000143  00000+0  90825-5 0  9995
2 52293  53.2190  20.7284 0001497  99.9551 260.1611 15.08839177168714
STARLINK-3777           
1 52294U 22041AK  25130.43267669 -.00000453  00000+0 -10353-4 0  9994
2 52294  53.2201  20.4897 0001693 105.4604 254.6575 15.08843373168726
STARLINK-3765           
1 52295U 22041AL  25129.84755647  .00000711  00000+0  62757-4 0  9996
2 52295  53.2196  23.1177 0001578 112.9555 247.1604 15.08835484169850
STARLINK-3766           
1 52296U 22041AM  25130.42164017  .00000287  00000+0  36119-4 0  9999
2 52296  53.2185  20.5438 0001300  87.0485 273.0656 15.08842607168722
STARLINK-3758           
1 52297U 22041AN  25129.84387963 -.00000469  00000+0 -11395-4 0  9994
2 52297  53.2182  23.1394 0001373  73.8675 286.2469 15.08841779169856
STARLINK-3760           
1 52298U 22041AP  25130.38110846 -.00000361  00000+0 -45935-5 0  9999
2 52298  53.2194  20.3375 0001607  96.1487 263.9688 15.08842921168727
STARLINK-3769           
1 52300U 22041AR  25130.21188228 -.00000661  00000+0 -23453-4 0  9997
2 52300  53.2184  21.4844 0001376  85.3482 274.7667 15.08832019169917
STARLINK-3768           
1 52301U 22041AS  25130.42899559  .00000187  00000+0  29806-4 0  9996
2 52301  53.2192  20.5081 0001394 103.5686 256.5462 15.08844225168720
STARLINK-3564           
1 52302U 22041AT  25130.40047469  .00000594  00000+0  55386-4 0  9994
2 52302  53.2200  10.6364 0001433  93.9198 266.1958 15.08846144168852
STARLINK-3742           
1 52303U 22041AU  25130.41427740  .00000607  00000+0  56199-4 0  9998
2 52303  53.2188  20.5762 0001446  85.2806 274.8351 15.08845766169947
STARLINK-3744           
1 52304U 22041AV  25130.39679733  .00001098  00000+0  87076-4 0  9990
2 52304  53.2187  10.6522 0001336  98.2656 261.8488 15.08834918168859
STARLINK-3724           
1 52305U 22041AW  25130.41797399 -.00001231  00000+0 -59244-4 0  9990
2 52305  53.2195  20.6645 0001564  81.8674 278.2495 15.08842901168724
STARLINK-3747           
1 52306U 22041AX  25130.39312147 -.00000224  00000+0  40083-5 0  9994
2 52306  53.2193  10.6691 0001153  86.1299 273.9825 15.08837770170076
STARLINK-3755           
1 52307U 22041AY  25130.07571911  .00000797  00000+0  68132-4 0  9994
2 52307  53.2193  22.0975 0001378  99.6951 260.4197 15.08842282168672
STARLINK-3756           
1 52309U 22041BA  25130.38943919  .00000432  00000+0  45256-4 0  9999
2 52309  53.2194  10.6860 0001456  87.6848 272.4311 15.08842420170072
STARLINK-3688           
1 52310U 22041BB  25130.38577192  .00000073  00000+0  22668-4 0  9990
2 52310  53.2190  10.7702 0001566  88.9137 271.2034 15.08838586170070
STARLINK-3750           
1 52311U 22041BC  25130.38208247  .00002388  00000+0  16804-3 0  9998
2 52311  53.2188  10.7169 0001145  95.5448 264.5675 15.08847665170071
STARLINK-3752           
1 52312U 22041BD  25130.07663188  .00003123  00000+0  21415-3 0  9996
2 52312  53.2185  12.0410 0001383  93.0785 267.0365 15.08848005170033
STARLINK-3749           
1 52313U 22041BE  25130.08031930 -.00000153  00000+0  84795-5 0  9995
2 52313  53.2185  12.0747 0001444  91.3790 268.7368 15.08840402170036
STARLINK-3889           
1 52331U 22045A   25130.73168179 -.00000112  00000+0  11034-4 0  9997
2 52331  53.2162 129.1487 0001684 114.9630 245.1537 15.08847405169904
STARLINK-3831           
1 52332U 22045B   25130.34623793 -.00000064  00000+0  14104-4 0  9990
2 52332  53.2163 130.8909 0001466  92.4750 267.6410 15.08837793169846
STARLINK-3847           
1 52333U 22045C   25130.14286214  .00003682  00000+0  24915-3 0  9990
2 52333  53.2157 131.7915 0001425 113.4717 246.6425 15.08864593169806
STARLINK-3880           
1 52334U 22045D   25130.26431931  .00000366  00000+0  41051-4 0  9999
2 52334  53.2160 131.2504 0001302  86.8137 273.3004 15.08843512169823
STARLINK-3814           
1 52335U 22045E   25130.32687514  .00000336  00000+0  39205-4 0  9992
2 52335  53.2160 130.9693 0001349  88.0323 272.0824 15.08842206169848
STARLINK-3823           
1 52336U 22045F   25130.69853590  .00000112  00000+0  25131-4 0  9997
2 52336  53.2156 129.0937 0001308  83.4863 276.6278 15.08834785169900
STARLINK-3797           
1 52337U 22045G   25130.27171838 -.00002330  00000+0 -12851-3 0  9990
2 52337  53.2158 131.2160 0000412  85.4219 274.6821 15.08810998169832
STARLINK-3792           
1 52339U 22045J   25130.41149585 -.00002024  00000+0 -10914-3 0  9990
2 52339  53.2159 130.2299 0001298  92.2849 267.8291 15.08823504169860
STARLINK-3818           
1 52340U 22045K   25130.67372032 -.00000275  00000+0  81293-6 0  9991
2 52340  53.2152 119.4079 0001276  87.4820 272.6318 15.08834195170023
STARLINK-3843           
1 52341U 22045L   25130.31215580  .00000439  00000+0  45638-4 0  9999
2 52341  53.2153 130.9848 0000829  74.1511 285.9573 15.08838769169849
STARLINK-3850           
1 52342U 22045M   25130.34621363  .00000585  00000+0  54853-4 0  9994
2 52342  53.2146 120.9948 0001361  90.8206 269.2942 15.08829672169983
STARLINK-3849           
1 52343U 22045N   25130.41520101 -.00003700  00000+0 -21447-3 0  9997
2 52343  53.2164 130.5702 0001324  88.1207 271.9937 15.08842528169865
STARLINK-3851           
1 52344U 22045P   25130.26893223  .00000087  00000+0  23585-4 0  9998
2 52344  53.2169 121.2958 0001400  94.3504 265.7648 15.08832407169972
STARLINK-3852           
1 52345U 22045Q   25130.69308638  .00003062  00000+0  21031-3 0  9996
2 52345  53.2174 119.4898 0001349  92.8642 267.2504 15.08854199170027
